GLOBALSTAR M035 [-]     
1 25851U 99037A   23283.66501854  .00000002  00000+0  24915-2 0  9996
2 25851  51.9990 347.6184 0013875  65.6307 106.6350 11.04526416 28247
GLOBALSTAR M032 [-]     
1 25852U 99037B   23283.53201003 -.00000062  00000+0  14662-3 0  9992
2 25852  51.9937 215.5907 0007422 208.5821 151.4572 11.19044934 65864
GLOBALSTAR M051 [-]     
1 25853U 99037C   23283.75002368 -.00000058  00000+0  33354-3 0  9994
2 25853  51.9781  85.5364 0001662 163.1747 196.9119 11.42192779 62064
GLOBALSTAR M030 [-]     
1 25854U 99037D   23284.07704306 -.00000093  00000+0 -38664-3 0  9991
2 25854  51.9872 289.9647 0004484  22.8266 337.2749 11.55092009 79068
GLOBALSTAR M048 [-]     
1 25872U 99041A   23283.52002375 -.00000055  00000+0  39886-3 0  9996
2 25872  51.9402 357.3182 0013373 197.0459 264.5840 11.33839971 55024
GLOBALSTAR M026 [-]     
1 25873U 99041B   23283.87157828 -.00000061  00000+0  97597-4 0  9990
2 25873  51.9978 111.6038 0001277   2.3651 104.4498 11.06827913 80354
GLOBALSTAR M043 [-]     
1 25874U 99041C   23283.83216650 -.00000052  00000+0  46948-3 0  9999
2 25874  51.9392  79.6941 0012977 345.6780 163.4173 11.25675329 53578
GLOBALSTAR M028 [-]     
1 25875U 99041D   23284.12654885 -.00000137  00000+0 -23855-3 0  9996
2 25875  51.9619 226.9991 0063204 175.3959 184.7495 12.50541500113255
